[{"OBJECT_NAME":"GAOFEN-12 05","OBJECT_ID":"2024-186A","EPOCH":"2026-03-10T00:24:03.082176","MEAN_MOTION":14.80867025,"ECCENTRICITY":8.035e-5,"INCLINATION":97.9136,"RA_OF_ASC_NODE":78.47,"ARG_OF_PERICENTER":119.8507,"MEAN_ANOMALY":240.2785,"EPHEMERIS_TYPE":0,"CLASSIFICATION_TYPE":"U","NORAD_CAT_ID":61571,"ELEMENT_SET_NO":999,"REV_AT_EPOCH":7466,"BSTAR":8.8744173e-5,"MEAN_MOTION_DOT":6.33e-6,"MEAN_MOTION_DDOT":0},{"OBJECT_NAME":"GEESAT-5 07","OBJECT_ID":"2025-201G","EPOCH":"2026-03-09T16:52:51.170592","MEAN_MOTION":14.83775124,"ECCENTRICITY":0.0013769,"INCLINATION":49.9868,"RA_OF_ASC_NODE":140.5179,"ARG_OF_PERICENTER":289.0003,"MEAN_ANOMALY":70.9443,"EPHEMERIS_TYPE":0,"CLASSIFICATION_TYPE":"U","NORAD_CAT_ID":65556,"ELEMENT_SET_NO":999,"REV_AT_EPOCH":2702,"BSTAR":0.00035187947,"MEAN_MOTION_DOT":2.721e-5,"MEAN_MOTION_DDOT":0}]
